[{"OBJECT_NAME":"COSMOS 2488 (RODNIK-S 7)","OBJECT_ID":"2013-076A","EPOCH":"2026-03-09T22:43:58.410048","MEAN_MOTION":12.42901515,"ECCENTRICITY":0.00185614,"INCLINATION":82.4815,"RA_OF_ASC_NODE":230.5184,"ARG_OF_PERICENTER":313.165,"MEAN_ANOMALY":46.7878,"EPHEMERIS_TYPE":0,"CLASSIFICATION_TYPE":"U","NORAD_CAT_ID":39483,"ELEMENT_SET_NO":999,"REV_AT_EPOCH":55356,"BSTAR":-0.00049341553,"MEAN_MOTION_DOT":-5.9e-7,"MEAN_MOTION_DDOT":0},{"OBJECT_NAME":"COSMOS 1823 DEB","OBJECT_ID":"1987-020EY","EPOCH":"2026-03-07T21:39:45.948096","MEAN_MOTION":12.46257459,"ECCENTRICITY":0.00365239,"INCLINATION":73.6146,"RA_OF_ASC_NODE":113.172,"ARG_OF_PERICENTER":264.4322,"MEAN_ANOMALY":277.8265,"EPHEMERIS_TYPE":0,"CLASSIFICATION_TYPE":"U","NORAD_CAT_ID":39824,"ELEMENT_SET_NO":999,"REV_AT_EPOCH":95450,"BSTAR":0.0017552006,"MEAN_MOTION_DOT":2.37e-6,"MEAN_MOTION_DDOT":0}]
